ONEWEB-0561             
1 56710U 23068A   23169.91667824 -.01097810  00000+0 -47299+0 0  9999
2 56710  87.1080 129.1013 0014272 115.2191 329.1313 14.27655215  1302
ONEWEB-0668             
1 56711U 23068B   23169.82379826  .00001847  00000+0  25142-3 0  9991
2 56711  86.7240 128.2023 0017474 116.5572 243.7442 14.78096609  5176
ONEWEB-0676             
1 56712U 23068C   23169.62482820  .00001987  00000+0  27144-3 0  9998
2 56712  86.7195 128.2728 0017480 118.8075 241.4904 14.77978837  4457
ONEWEB-0677             
1 56713U 23068D   23169.91667824 -.00463886  00000+0 -13965+0 0  9994
2 56713  86.9629 128.8715 0012548 112.6978 350.0287 14.45125009  1300
ONEWEB-0678             
1 56714U 23068E   23169.64159014  .00003776  00000+0  52847-3 0  9994
2 56714  86.7187 128.2894 0013393 115.4534 244.8073 14.77262172  4458
ONEWEB-0679             
1 56715U 23068F   23169.82268478  .00002902  00000+0  39662-3 0  9990
2 56715  86.7233 128.2004 0017681 117.1873 243.1152 14.78134679  5174
ONEWEB-0680             
1 56716U 23068G   23169.62665875  .00001868  00000+0  25648-3 0  9990
2 56716  86.7216 128.2770 0016716 119.3841 240.9051 14.77746467  4459
ONEWEB-0681             
1 56717U 23068H   23169.63557902  .00001914  00000+0  26515-3 0  9999
2 56717  86.7222 128.2893 0014686 120.4960 239.7712 14.77402467  4451
ONEWEB-0682             
1 56718U 23068J   23169.63777596  .00004917  00000+0  69165-3 0  9997
2 56718  86.7228 128.2932 0014237 120.5658 239.6969 14.77107622  4457
ONEWEB-0683             
1 56719U 23068K   23169.63931831  .00001788  00000+0  24934-3 0  9990
2 56719  86.7219 128.2933 0014049 119.3665 240.8960 14.77089046  4458
ONEWEB-0684             
1 56720U 23068L   23169.64167043  .00003460  00000+0  48578-3 0  9998
2 56720  86.7218 128.2916 0013199 117.7304 242.5256 14.77104490  4455
ONEWEB-0686             
1 56721U 23068M   23169.62302811  .00001863  00000+0  25517-3 0  9994
2 56721  86.7209 128.2719 0017348 118.3982 241.8990 14.77842705  4451
ONEWEB-0694             
1 56722U 23068N   23169.62417056  .00001822  00000+0  24961-3 0  9990
2 56722  86.7250 128.2896 0017134 118.2007 242.0947 14.77809625  4453
ONEWEB-0696             
1 56723U 23068P   23169.64145055  .00001655  00000+0  23121-3 0  9991
2 56723  86.7214 128.2945 0013685 118.2198 242.0406 14.76976232  4455
ONEWEB-0703             
1 56724U 23068Q   23169.64015736  .00001646  00000+0  22934-3 0  9995
2 56724  86.7216 128.2902 0013760 119.0182 241.2419 14.77072511  4450
ONEWEB-0721             
1 56725U 23068R   23169.41413416  .00002385  00000+0  29190-3 0  9990
2 56725  86.6775 128.3229 0013330 117.6968 242.5610 14.82721081  4425
IRIDIUM 181             
1 56726U 23068S   23169.85826307  .00001524  00000+0  19684-3 0  9997
2 56726  86.6767 128.1750 0003178 105.5250 254.6323 14.80306034  4489
IRIDIUM 177             
1 56727U 23068T   23169.85275785  .00001512  00000+0  19531-3 0  9994
2 56727  86.6757 128.1678 0002736 101.6888 258.4641 14.80274715  4486
IRIDIUM 174             
1 56728U 23068U   23169.71213440  .00001528  00000+0  19743-3 0  9992
2 56728  86.6812 128.2411 0002716 100.2826 259.8702 14.80273851  4461
IRIDIUM 178             
1 56729U 23068V   23169.63915604  .00001551  00000+0  20045-3 0  9998
2 56729  86.6755 128.2453 0002621 104.9308 255.2204 14.80273846  4455
IRIDIUM 179             
1 56730U 23068W   23169.63343842  .00001554  00000+0  20096-3 0  9998
2 56730  86.6797 128.2568 0002557 106.1022 254.0481 14.80251149  4451
2023-069A               
1 56731U 23069A   23169.77332835  .00005984  00000+0  20307-3 0  9991
2 56731  41.0035 194.1468 0031700 335.7565  24.1762 15.30493334  4354
2023-069B               
1 56732U 23069B   23169.76233539  .00013190  00000+0  42681-3 0  9999
2 56732  41.0028 194.0610 0029704 335.9445  23.9987 15.31373933  4354
2023-069C               
1 56733U 23069C   23169.76189920  .00005909  00000+0  19702-3 0  9991
2 56733  41.0030 194.0579 0029193 336.0644  23.8819 15.31156352  4354
CZ-2C R/B               
1 56734U 23069D   23169.53590700  .00021825  00000+0  39667-3 0  9996
2 56734  41.1958 191.9053 0054129 242.0387 117.4957 15.47373648  4365
CZ-2C DEB               
1 56735U 23069E   23169.48233701  .00048586  00000+0  32156-2 0  9994
2 56735  41.1405 205.8188 0207650 314.8517  43.5586 14.90608093  4201
CZ-2C DEB               
1 56736U 23069F   23169.80660522  .00076097  00000+0  28820-2 0  9997
2 56736  40.8521 197.0029 0115479   7.6410 352.6133 15.19875110  4333
CZ-2C DEB               
1 56737U 23069G   23169.47475717  .00096135  00000+0  32384-2 0  9996
2 56737  41.0941 198.0188 0109815  12.1717 348.1720 15.24037040  4259
2023-069H               
1 56738U 23069H   23169.51758980  .00041918  00000+0  27140-2 0  9991
2 56738  40.9030 205.2221 0200725 314.9405  43.5271 14.92329487  4211
PROGRESS-MS 23          
1 56740U 23071A   23169.49077488  .00011509  00000+0  20822-3 0  9995
2 56740  51.6411 322.0684 0004531  53.0496  52.7189 15.50150076401992
2023-072A               
1 56743U 23072A   23169.80079462  .00005003  00000+0  33558-3 0  9990
2 56743  97.5420 356.6378 0007991 207.0755 153.0057 15.07269474  3676
SNIPE 4                 
1 56744U 23072B   23169.79972601  .00006385  00000+0  42581-3 0  9996
2 56744  97.5505 356.6666 0007990 208.1720 151.9076 15.07374899  3670
SNIPE 2                 
1 56745U 23072C   23169.79758932  .00005873  00000+0  39060-3 0  9995
2 56745  97.5515 356.6719 0008242 211.5630 148.5104 15.07509669  3679
2023-072D               
1 56746U 23072D   23169.79508736  .00006770  00000+0  44747-3 0  9996
2 56746  97.5517 356.6752 0008514 215.0871 144.9797 15.07683929  3677
2023-072E               
1 56747U 23072E   23169.79281816  .00006041  00000+0  39838-3 0  9990
2 56747  97.5520 356.6782 0008932 217.9798 142.0801 15.07805892  3678
2023-072F               
1 56748U 23072F   23169.79222178  .00005140  00000+0  33947-3 0  9991
2 56748  97.5314 356.6155 0009216 218.4724 141.5848 15.07822366  3675
2023-072G               
1 56749U 23072G   23169.78979444  .00005962  00000+0  39121-3 0  9998
2 56749  97.5322 356.6208 0009517 221.5362 138.5143 15.07994406  3670
2023-072H               
1 56750U 23072H   23169.68022819  .00003864  00000+0  21121-3 0  9994
2 56750  97.5374 356.7768 0015558 198.0819 161.9861 15.14792585  3677
AXIOM-2 DEB             
1 56751U 23070B   23169.52720682  .00156773  00000+0  89965-3 0  9997
2 56751  51.4313 318.7176 0057913 229.7979 129.7942 15.75346653  2917
ELECTRON KICK STAGE R/B 
1 56752U 23073A   23169.82955602  .00009006  00000+0  58405-3 0  9997
2 56752  32.7372  57.6753 0011552  78.4028 281.7938 15.07014913  3571
TROPICS-03              
1 56753U 23073B   23169.83296982  .00007946  00000+0  51909-3 0  9991
2 56753  32.7374  57.7079 0010147  90.2977 269.8855 15.06746852  3556
TROPICS-07              
1 56754U 23073C   23169.81552854  .00008886  00000+0  56244-3 0  9994
2 56754  32.7379  57.5620 0014610  81.8356 278.3970 15.07870732  3579
ELECTRON R/B            
1 56755U 23073D   23169.81026379  .00013534  00000+0  84792-3 0  9998
2 56755  35.4652  63.1054 0023857  28.8299 331.3733 15.08395520  3573
COSMOS 2569             
1 56756U 23074A   23169.80705511  .00005062  00000+0  24665-3 0  9991
2 56756  97.4373   4.2316 0001500  88.4599 271.6807 15.18784604  3489
ARABSAT-7B (BADR-8)     
1 56757U 23075A   23167.02714102 -.00000165  00000+0  00000+0 0  9994
2 56757  18.9463 144.8944 7744225 184.6441 157.0774  1.02604984    12
FALCON 9 R/B            
1 56758U 23075B   23169.14948221 -.00000130  00000+0  59319-3 0  9994
2 56758  27.8659 144.3500 8175453 186.0901 145.7284  1.20343415   256
IRNSS-1J (NVS-01)       
1 56759U 23076A   23169.71091198 -.00000327  00000+0  00000+0 0  9998
2 56759   4.9344 273.5503 0004468 357.8071  20.7805  1.00270237   145
GSLV R/B                
1 56760U 23076B   23169.56556057  .00152728  13820-5  48070-2 0  9997
2 56760  19.1765 262.2526 7495839 191.4828 129.1120  2.05546707   426
SHENZHOU-16 (SZ-16)     
1 56761U 23077A   23169.31747221  .00000098  00000+0  53775-5 0  9990
2 56761  41.4744 149.0011 0004865  67.5599 292.5755 15.59259503122016
STARLINK-6197           
1 56767U 23078A   23169.91667824  .00034907  00000+0  29095-3 0  9995
2 56767  70.0004   0.9075 0003542 272.3239 121.4513 15.69916172  1305
STARLINK-6198           
1 56768U 23078B   23169.91667824  .00046466  00000+0  38644-3 0  9999
2 56768  70.0008   0.9067 0003595 275.5274 121.2455 15.69899791  1303
STARLINK-5978           
1 56769U 23078C   23169.91667824  .00048271  00000+0  40117-3 0  9994
2 56769  70.0000   0.9079 0003636 273.5884 121.3820 15.69907372  1302
STARLINK-6342           
1 56770U 23078D   23169.91667824  .00040657  00000+0  33849-3 0  9990
2 56770  69.9999   0.9091 0003718 276.5082 117.8755 15.69905862  1305
STARLINK-6339           
1 56771U 23078E   23169.91667824  .00068584  00000+0  56826-3 0  9990
2 56771  70.0007   0.9035 0003474 277.7844 119.5778 15.69891278  1304
STARLINK-6275           
1 56772U 23078F   23169.91667824  .00070271  00000+0  58206-3 0  9991
2 56772  70.0000   0.9073 0003879 276.5831 118.9951 15.69890075  1302
STARLINK-6296           
1 56773U 23078G   23169.91667824  .00069472  00000+0  57551-3 0  9995
2 56773  70.0008   0.9024 0003526 276.0655 121.8918 15.69891907  1306
STARLINK-6190           
1 56774U 23078H   23169.91667824  .00013031  00000+0  10997-3 0  9999
2 56774  70.0001   0.9059 0003742 274.9955 121.1653 15.69923821  1308
STARLINK-6292           
1 56775U 23078J   23169.91667824  .00059332  00000+0  49223-3 0  9998
2 56775  70.0007   0.8992 0003519 275.8730 125.0572 15.69898681  1301
STARLINK-6274           
1 56776U 23078K   23169.91667824  .00072263  00000+0  59838-3 0  9990
2 56776  70.0000   0.9033 0003557 270.9930 127.5582 15.69891076  1301
